[
    {
        "Altitude(m)": 710304.5355282068,
        "Argument of Periapsis(deg)": 0.005695060593313534,
        "Eccentricity": 0.0,
        "Inclination(deg)": 45.0,
        "Latitude(deg)": -26.286500948302507,
        "Longitude(deg)": -50.94655382517263,
        "Mean Anomaly(deg)": -141.50609167625956,
        "RAAN(deg)": 199.9946240292709,
        "Satellite Name": "Constellation 1 893",
        "Satellite Number": 893,
        "Semi-Major Axis(m)": 7083131.272910544,
        "Time(s)": 95
    },
    {
        "Altitude(m)": 710318.3756338806,
        "Argument of Periapsis(deg)": 0.00575500859955894,
        "Eccentricity": 0.0,
        "Inclination(deg)": 45.0,
        "Latitude(deg)": -26.324004481986698,
        "Longitude(deg)": -50.89748148982755,
        "Mean Anomaly(deg)": -141.44539053600965,
        "RAAN(deg)": 199.9945674401053,
        "Satellite Name": "Constellation 1 893",
        "Satellite Number": 893,
        "Semi-Major Axis(m)": 7083131.272910544,
        "Time(s)": 96
    },
    {
        "Altitude(m)": 710332.2164954864,
        "Argument of Periapsis(deg)": 0.005814956605804345,
        "Eccentricity": 0.0,
        "Inclination(deg)": 45.0,
        "Latitude(deg)": -26.361488000359262,
        "Longitude(deg)": -50.84837486975891,
        "Mean Anomaly(deg)": -141.38468939575975,
        "RAAN(deg)": 199.99451085093975,
        "Satellite Name": "Constellation 1 893",
        "Satellite Number": 893,
        "Semi-Major Axis(m)": 7083131.272910544,
        "Time(s)": 97
    },
    {
        "Altitude(m)": 710346.0580655107,
        "Argument of Periapsis(deg)": 0.00587490461204975,
        "Eccentricity": 0.0,
        "Inclination(deg)": 45.0,
        "Latitude(deg)": -26.398951458525495,
        "Longitude(deg)": -50.79923407293027,
        "Mean Anomaly(deg)": -141.3239882555099,
        "RAAN(deg)": 199.9944542617742,
        "Satellite Name": "Constellation 1 893",
        "Satellite Number": 893,
        "Semi-Major Axis(m)": 7083131.272910544,
        "Time(s)": 98
    },
    {
        "Altitude(m)": 710359.9002964511,
        "Argument of Periapsis(deg)": 0.005934852618295156,
        "Eccentricity": 0.0,
        "Inclination(deg)": 45.0,
        "Latitude(deg)": -26.436394811525304,
        "Longitude(deg)": -50.750059039214406,
        "Mean Anomaly(deg)": -141.26328711526,
        "RAAN(deg)": 199.9943976726086,
        "Satellite Name": "Constellation 1 893",
        "Satellite Number": 893,
        "Semi-Major Axis(m)": 7083131.272910544,
        "Time(s)": 99
    },
    {
        "Altitude(m)": 710373.743140772,
        "Argument of Periapsis(deg)": 0.005994800624540561,
        "Eccentricity": 0.0,
        "Inclination(deg)": 45.0,
        "Latitude(deg)": -26.473818014333194,
        "Longitude(deg)": -50.70084970849159,
        "Mean Anomaly(deg)": -141.20258597501007,
        "RAAN(deg)": 199.99434108344306,
        "Satellite Name": "Constellation 1 893",
        "Satellite Number": 893,
        "Semi-Major Axis(m)": 7083131.272910544,
        "Time(s)": 100
    },
    {
        "Altitude(m)": 710387.5865509306,
        "Argument of Periapsis(deg)": 0.006054748630785968,
        "Eccentricity": 0.0,
        "Inclination(deg)": 45.0,
        "Latitude(deg)": -26.51122102185835,
        "Longitude(deg)": -50.65160602064926,
        "Mean Anomaly(deg)": -141.14188483476022,
        "RAAN(deg)": 199.99428449427745,
        "Satellite Name": "Constellation 1 893",
        "Satellite Number": 893,
        "Semi-Major Axis(m)": 7083131.272910544,
        "Time(s)": 101
    },
    {
        "Altitude(m)": 710401.4304793731,
        "Argument of Periapsis(deg)": 0.006114696637031373,
        "Eccentricity": 0.0,
        "Inclination(deg)": 45.0,
        "Latitude(deg)": -26.548603788944217,
        "Longitude(deg)": -50.60232791558316,
        "Mean Anomaly(deg)": -141.0811836945103,
        "RAAN(deg)": 199.9942279051119,
        "Satellite Name": "Constellation 1 893",
        "Satellite Number": 893,
        "Semi-Major Axis(m)": 7083131.272910544,
        "Time(s)": 102
    },
    {
        "Altitude(m)": 710415.2748785238,
        "Argument of Periapsis(deg)": 0.006174644643276778,
        "Eccentricity": 0.0,
        "Inclination(deg)": 45.0,
        "Latitude(deg)": -26.585966270368726,
        "Longitude(deg)": -50.553015333197216,
        "Mean Anomaly(deg)": -141.02048255426038,
        "RAAN(deg)": 199.99417131594632,
        "Satellite Name": "Constellation 1 893",
        "Satellite Number": 893,
        "Semi-Major Axis(m)": 7083131.272910544,
        "Time(s)": 103
    },
    {
        "Altitude(m)": 710429.1197008,
        "Argument of Periapsis(deg)": 0.006234592649522184,
        "Eccentricity": 0.0,
        "Inclination(deg)": 45.0,
        "Latitude(deg)": -26.623308420844253,
        "Longitude(deg)": -50.50366838150115,
        "Mean Anomaly(deg)": -140.95978141401054,
        "RAAN(deg)": 199.99411472678077,
        "Satellite Name": "Constellation 1 893",
        "Satellite Number": 893,
        "Semi-Major Axis(m)": 7083131.272910544,
        "Time(s)": 104
    },
    {
        "Altitude(m)": 710442.9648986012,
        "Argument of Periapsis(deg)": 0.00629454065576759,
        "Eccentricity": 0.0,
        "Inclination(deg)": 45.0,
        "Latitude(deg)": -26.660630195016974,
        "Longitude(deg)": -50.45428666422218,
        "Mean Anomaly(deg)": -140.8990802737606,
        "RAAN(deg)": 199.9940581376152,
        "Satellite Name": "Constellation 1 893",
        "Satellite Number": 893,
        "Semi-Major Axis(m)": 7083131.272910544,
        "Time(s)": 105
    },
    {
        "Altitude(m)": 710456.8104243162,
        "Argument of Periapsis(deg)": 0.006354488662012995,
        "Eccentricity": 0.0,
        "Inclination(deg)": 45.0,
        "Latitude(deg)": -26.697931547467405,
        "Longitude(deg)": -50.404870289388846,
        "Mean Anomaly(deg)": -140.8383791335107,
        "RAAN(deg)": 199.99400154844963,
        "Satellite Name": "Constellation 1 893",
        "Satellite Number": 893,
        "Semi-Major Axis(m)": 7083131.272910544,
        "Time(s)": 106
    },
    {
        "Altitude(m)": 710470.656230318,
        "Argument of Periapsis(deg)": 0.006414436668258401,
        "Eccentricity": 0.0,
        "Inclination(deg)": 45.0,
        "Latitude(deg)": -26.73521243271025,
        "Longitude(deg)": -50.355419196941895,
        "Mean Anomaly(deg)": -140.77767799326077,
        "RAAN(deg)": 199.99394495928408,
        "Satellite Name": "Constellation 1 893",
        "Satellite Number": 893,
        "Semi-Major Axis(m)": 7083131.272910544,
        "Time(s)": 107
    },
    {
        "Altitude(m)": 710484.502268973,
        "Argument of Periapsis(deg)": 0.0064743846745038075,
        "Eccentricity": 0.0,
        "Inclination(deg)": 45.0,
        "Latitude(deg)": -26.772472805193843,
        "Longitude(deg)": -50.305933326832864,
        "Mean Anomaly(deg)": -140.7169768530109,
        "RAAN(deg)": 199.99388837011847,
        "Satellite Name": "Constellation 1 893",
        "Satellite Number": 893,
        "Semi-Major Axis(m)": 7083131.272910544,
        "Time(s)": 108
    },
    {
        "Altitude(m)": 710498.34849263,
        "Argument of Periapsis(deg)": 0.0065343326807492125,
        "Eccentricity": 0.0,
        "Inclination(deg)": 45.0,
        "Latitude(deg)": -26.80971261930066,
        "Longitude(deg)": -50.2564126190234,
        "Mean Anomaly(deg)": -140.65627571276104,
        "RAAN(deg)": 199.99383178095292,
        "Satellite Name": "Constellation 1 893",
        "Satellite Number": 893,
        "Semi-Major Axis(m)": 7083131.272910544,
        "Time(s)": 109
    },
    {
        "Altitude(m)": 710512.1948536225,
        "Argument of Periapsis(deg)": 0.0065942806869946176,
        "Eccentricity": 0.0,
        "Inclination(deg)": 45.0,
        "Latitude(deg)": -26.846931829346786,
        "Longitude(deg)": -50.20685701348656,
        "Mean Anomaly(deg)": -140.59557457251108,
        "RAAN(deg)": 199.99377519178736,
        "Satellite Name": "Constellation 1 893",
        "Satellite Number": 893,
        "Semi-Major Axis(m)": 7083131.272910544,
        "Time(s)": 110
    },
    {
        "Altitude(m)": 710526.0413042764,
        "Argument of Periapsis(deg)": 0.006654228693240024,
        "Eccentricity": 0.0,
        "Inclination(deg)": 45.0,
        "Latitude(deg)": -26.884130389582122,
        "Longitude(deg)": -50.157266618304,
        "Mean Anomaly(deg)": -140.5348734322612,
        "RAAN(deg)": 199.99371860262178,
        "Satellite Name": "Constellation 1 893",
        "Satellite Number": 893,
        "Semi-Major Axis(m)": 7083131.272910544,
        "Time(s)": 111
    },
    {
        "Altitude(m)": 710539.887796906,
        "Argument of Periapsis(deg)": 0.006714176699485429,
        "Eccentricity": 0.0,
        "Inclination(deg)": 45.0,
        "Latitude(deg)": -26.921308254189857,
        "Longitude(deg)": -50.107641037277496,
        "Mean Anomaly(deg)": -140.4741722920113,
        "RAAN(deg)": 199.99366201345623,
        "Satellite Name": "Constellation 1 893",
        "Satellite Number": 893,
        "Semi-Major Axis(m)": 7083131.272910544,
        "Time(s)": 112
    },
    {
        "Altitude(m)": 710553.7342838092,
        "Argument of Periapsis(deg)": 0.006774124705730835,
        "Eccentricity": 0.0,
        "Inclination(deg)": 45.0,
        "Latitude(deg)": -26.958465377286952,
        "Longitude(deg)": -50.05798037851289,
        "Mean Anomaly(deg)": -140.4134711517614,
        "RAAN(deg)": 199.99360542429065,
        "Satellite Name": "Constellation 1 893",
        "Satellite Number": 893,
        "Semi-Major Axis(m)": 7083131.272910544,
        "Time(s)": 113
    }
]